[{"OBJECT_NAME":"STARLINK-4757","OBJECT_ID":"2022-114G","EPOCH":"2026-03-09T21:54:32.806944","MEAN_MOTION":15.08848756,"ECCENTRICITY":0.00012809,"INCLINATION":53.2175,"RA_OF_ASC_NODE":302.5297,"ARG_OF_PERICENTER":91.617,"MEAN_ANOMALY":268.4969,"EPHEMERIS_TYPE":0,"CLASSIFICATION_TYPE":"U","NORAD_CAT_ID":53824,"ELEMENT_SET_NO":999,"REV_AT_EPOCH":19278,"BSTAR":0.00015977517,"MEAN_MOTION_DOT":2.256e-5,"MEAN_MOTION_DDOT":0},{"OBJECT_NAME":"KUIPER-00164","OBJECT_ID":"2025-301B","EPOCH":"2026-03-09T22:00:01.999584","MEAN_MOTION":15.08488187,"ECCENTRICITY":0.00045568,"INCLINATION":51.8847,"RA_OF_ASC_NODE":66.2292,"ARG_OF_PERICENTER":84.8156,"MEAN_ANOMALY":198.9561,"EPHEMERIS_TYPE":0,"CLASSIFICATION_TYPE":"U","NORAD_CAT_ID":67134,"ELEMENT_SET_NO":999,"REV_AT_EPOCH":541,"BSTAR":0.00024752424,"MEAN_MOTION_DOT":3.618e-5,"MEAN_MOTION_DDOT":0}]
